QZS-1R                  
1 49336U 21096A   24087.40743752 -.00000206  00000+0  00000+0 0  9993
2 49336  35.7749  91.7656 0750705 269.8661 104.5703  1.00287951  8863
